{
  "type": "FeatureCollection",
  "features": [
    {
      "type": "Feature",
      "properties": {
        "norad_id": 66801,
        "name": "STARLINK-36080",
        "group": "last-30-days",
        "lat": 42.61130605968369,
        "lon": -113.37145119701786,
        "alt_km": 422.2464352230754,
        "timestamp": "2025-12-27T03:58:42.932088+00:00",
        "meta_object_name": "STARLINK-36080",
        "meta_object_id": "2025-278L",
        "meta_epoch": "2025-12-26T20:00:01.999008",
        "meta_mean_motion": 15.47696115,
        "meta_eccentricity": 0.000163,
        "meta_inclination": 43.0001,
        "meta_ra_of_asc_node": 167.7456,
        "meta_arg_of_pericenter": 269.8543,
        "meta_mean_anomaly": 119.9558,
        "meta_ephemeris_type": 0,
        "meta_classification_type": "U",
        "meta_norad_cat_id": 66801,
        "meta_element_set_no": 999,
        "meta_rev_at_epoch": 522,
        "meta_bstar": -0.043364,
        "meta_mean_motion_dot": -0.02045665,
        "meta_mean_motion_ddot": 0,
        "tle_line1": "1 66801U 25278L   25360.83335647 -.02045665  00000+0 -43364-1 0  9990",
        "tle_line2": "2 66801  43.0001 167.7456 0001630 269.8543 119.9558 15.47696115  5226"
      },
      "geometry": {
        "type": "Point",
        "coordinates": [
          -113.37145119701786,
          42.61130605968369
        ]
      }
    },
    {
      "type": "Feature",
      "properties": {
        "norad_id": 66802,
        "name": "STARLINK-35604",
        "group": "last-30-days",
        "lat": 42.07341434733802,
        "lon": -118.54077942644093,
        "alt_km": 409.47092326757956,
        "timestamp": "2025-12-27T03:58:42.932096+00:00",
        "meta_object_name": "STARLINK-35604",
        "meta_object_id": "2025-278M",
        "meta_epoch": "2025-12-26T20:00:01.999008",
        "meta_mean_motion": 15.50574716,
        "meta_eccentricity": 0.0001567,
        "meta_inclination": 43.0001,
        "meta_ra_of_asc_node": 167.7666,
        "meta_arg_of_pericenter": 268.7425,
        "meta_mean_anomaly": 112.8673,
        "meta_ephemeris_type": 0,
        "meta_classification_type": "U",
        "meta_norad_cat_id": 66802,
        "meta_element_set_no": 999,
        "meta_rev_at_epoch": 522,
        "meta_bstar": -0.00061717,
        "meta_mean_motion_dot": -0.00036375,
        "meta_mean_motion_ddot": 0,
        "tle_line1": "1 66802U 25278M   25360.83335647 -.00036375  00000+0 -61717-3 0  9991",
        "tle_line2": "2 66802  43.0001 167.7666 0001567 268.7425 112.8673 15.50574716  5222"
      },
      "geometry": {
        "type": "Point",
        "coordinates": [
          -118.54077942644093,
          42.07341434733802
        ]
      }
    },
    {
      "type": "Feature",
      "properties": {
        "norad_id": 66803,
        "name": "STARLINK-35565",
        "group": "last-30-days",
        "lat": 5.598524529132295,
        "lon": 172.03222002758588,
        "alt_km": 442.9477291849407,
        "timestamp": "2025-12-27T03:58:42.932106+00:00",
        "meta_object_name": "STARLINK-35565",
        "meta_object_id": "2025-278N",
        "meta_epoch": "2025-12-26T20:00:01.999008",
        "meta_mean_motion": 15.40658527,
        "meta_eccentricity": 0.0001807,
        "meta_inclination": 43,
        "meta_ra_of_asc_node": 167.9099,
        "meta_arg_of_pericenter": 281.0561,
        "meta_mean_anomaly": 41.3031,
        "meta_ephemeris_type": 0,
        "meta_classification_type": "U",
        "meta_norad_cat_id": 66803,
        "meta_element_set_no": 999,
        "meta_rev_at_epoch": 531,
        "meta_bstar": 0.001558,
        "meta_mean_motion_dot": 0.00065249,
        "meta_mean_motion_ddot": 0,
        "tle_line1": "1 66803U 25278N   25360.83335647  .00065249  00000+0  15580-2 0  9998",
        "tle_line2": "2 66803  43.0000 167.9099 0001807 281.0561  41.3031 15.40658527  5316"
      },
      "geometry": {
        "type": "Point",
        "coordinates": [
          172.03222002758588,
          5.598524529132295
        ]
      }
    },
    {
      "type": "Feature",
      "properties": {
        "norad_id": 66804,
        "name": "STARLINK-36038",
        "group": "last-30-days",
        "lat": 13.925158446644948,
        "lon": -178.60520287515848,
        "alt_km": 442.07946389003155,
        "timestamp": "2025-12-27T03:58:42.932116+00:00",
        "meta_object_name": "STARLINK-36038",
        "meta_object_id": "2025-278P",
        "meta_epoch": "2025-12-26T20:00:01.999008",
        "meta_mean_motion": 15.40651853,
        "meta_eccentricity": 0.00018,
        "meta_inclination": 42.9999,
        "meta_ra_of_asc_node": 167.88,
        "meta_arg_of_pericenter": 277.5708,
        "meta_mean_anomaly": 57.2345,
        "meta_ephemeris_type": 0,
        "meta_classification_type": "U",
        "meta_norad_cat_id": 66804,
        "meta_element_set_no": 999,
        "meta_rev_at_epoch": 522,
        "meta_bstar": 0.0015659,
        "meta_mean_motion_dot": 0.00065566,
        "meta_mean_motion_ddot": 0,
        "tle_line1": "1 66804U 25278P   25360.83335647  .00065566  00000+0  15659-2 0  9998",
        "tle_line2": "2 66804  42.9999 167.8800 0001800 277.5708  57.2345 15.40651853  5226"
      },
      "geometry": {
        "type": "Point",
        "coordinates": [
          -178.60520287515848,
          13.925158446644948
        ]
      }
    },
    {
      "type": "Feature",
      "properties": {
        "norad_id": 66805,
        "name": "STARLINK-36049",
        "group": "last-30-days",
        "lat": 29.154186439724974,
        "lon": -157.32556888787545,
        "alt_km": 440.26380655348385,
        "timestamp": "2025-12-27T03:58:42.932126+00:00",
        "meta_object_name": "STARLINK-36049",
        "meta_object_id": "2025-278Q",
        "meta_epoch": "2025-12-26T20:00:01.999008",
        "meta_mean_motion": 15.41200532,
        "meta_eccentricity": 0.0001389,
        "meta_inclination": 42.9999,
        "meta_ra_of_asc_node": 167.8194,
        "meta_arg_of_pericenter": 266.9844,
        "meta_mean_anomaly": 92.4459,
        "meta_ephemeris_type": 0,
        "meta_classification_type": "U",
        "meta_norad_cat_id": 66805,
        "meta_element_set_no": 999,
        "meta_rev_at_epoch": 522,
        "meta_bstar": -0.019721,
        "meta_mean_motion_dot": -0.00769778,
        "meta_mean_motion_ddot": 0,
        "tle_line1": "1 66805U 25278Q   25360.83335647 -.00769778  00000+0 -19721-1 0  9990",
        "tle_line2": "2 66805  42.9999 167.8194 0001389 266.9844  92.4459 15.41200532  5220"
      },
      "geometry": {
        "type": "Point",
        "coordinates": [
          -157.32556888787545,
          29.154186439724974
        ]
      }
    },
    {
      "type": "Feature",
      "properties": {
        "norad_id": 66806,
        "name": "STARLINK-36069",
        "group": "last-30-days",
        "lat": 42.90021139485146,
        "lon": -108.46596539107752,
        "alt_km": 410.72573440714586,
        "timestamp": "2025-12-27T03:58:42.932149+00:00",
        "meta_object_name": "STARLINK-36069",
        "meta_object_id": "2025-278R",
        "meta_epoch": "2025-12-26T18:19:47.006400",
        "meta_mean_motion": 15.50477461,
        "meta_eccentricity": 0.0004536,
        "meta_inclination": 42.9999,
        "meta_ra_of_asc_node": 168.1512,
        "meta_arg_of_pericenter": 300.3584,
        "meta_mean_anomaly": 59.6827,
        "meta_ephemeris_type": 0,
        "meta_classification_type": "U",
        "meta_norad_cat_id": 66806,
        "meta_element_set_no": 999,
        "meta_rev_at_epoch": 403,
        "meta_bstar": 0.001977,
        "meta_mean_motion_dot": 0.00116994,
        "meta_mean_motion_ddot": 0,
        "tle_line1": "1 66806U 25278R   25360.76373850  .00116994  00000+0  19770-2 0  9990",
        "tle_line2": "2 66806  42.9999 168.1512 0004536 300.3584  59.6827 15.50477461  4039"
      },
      "geometry": {
        "type": "Point",
        "coordinates": [
          -108.46596539107752,
          42.90021139485146
        ]
      }
    },
    {
      "type": "Feature",
      "properties": {
        "norad_id": 66807,
        "name": "STARLINK-36000",
        "group": "last-30-days",
        "lat": 42.91446282504663,
        "lon": -100.3481857821051,
        "alt_km": 409.2242994656435,
        "timestamp": "2025-12-27T03:58:42.932159+00:00",
        "meta_object_name": "STARLINK-36000",
        "meta_object_id": "2025-278S",
        "meta_epoch": "2025-12-26T20:00:01.999008",
        "meta_mean_motion": 15.5057752,
        "meta_eccentricity": 0.0001449,
        "meta_inclination": 42.9999,
        "meta_ra_of_asc_node": 167.7337,
        "meta_arg_of_pericenter": 269.4622,
        "meta_mean_anomaly": 125.5577,
        "meta_ephemeris_type": 0,
        "meta_classification_type": "U",
        "meta_norad_cat_id": 66807,
        "meta_element_set_no": 999,
        "meta_rev_at_epoch": 528,
        "meta_bstar": -0.00017383,
        "meta_mean_motion_dot": -0.00010525,
        "meta_mean_motion_ddot": 0,
        "tle_line1": "1 66807U 25278S   25360.83335647 -.00010525  00000+0 -17383-3 0  9995",
        "tle_line2": "2 66807  42.9999 167.7337 0001449 269.4622 125.5577 15.50577520  5288"
      },
      "geometry": {
        "type": "Point",
        "coordinates": [
          -100.3481857821051,
          42.91446282504663
        ]
      }
    }
  ]
}